CCSDS_OMM_VERS = 2.0
CREATION_DATE  = 
ORIGINATOR     = 

OBJECT_NAME    = STARLINK-35431
OBJECT_ID      = 2025-232AB
CENTER_NAME    = EARTH
REF_FRAME      = TEME
TIME_SYSTEM    = UTC
MEAN_ELEMENT_THEORY = SGP/SGP4

EPOCH          = 2025-10-27T12:00:02.000160
MEAN_MOTION    = 15.80783997
ECCENTRICITY   = .0001144
INCLINATION    = 53.1543
RA_OF_ASC_NODE = 7.1774
ARG_OF_PERICENTER = 66.3942
MEAN_ANOMALY   = 126.6627

EPHEMERIS_TYPE = 0
CLASSIFICATION_TYPE = U
NORAD_CAT_ID   = 66030
ELEMENT_SET_NO = 999
REV_AT_EPOCH   = 205
BSTAR          = -.10416E-1
MEAN_MOTION_DOT = -.1801283E-1
MEAN_MOTION_DDOT = 0

CCSDS_OMM_VERS = 2.0
CREATION_DATE  = 
ORIGINATOR     = 

OBJECT_NAME    = STARLINK-35326
OBJECT_ID      = 2025-232AC
CENTER_NAME    = EARTH
REF_FRAME      = TEME
TIME_SYSTEM    = UTC
MEAN_ELEMENT_THEORY = SGP/SGP4

EPOCH          = 2025-10-27T12:00:02.000160
MEAN_MOTION    = 15.80778894
ECCENTRICITY   = .0001293
INCLINATION    = 53.1549
RA_OF_ASC_NODE = 7.1738
ARG_OF_PERICENTER = 74.2213
MEAN_ANOMALY   = 120.9728

EPHEMERIS_TYPE = 0
CLASSIFICATION_TYPE = U
NORAD_CAT_ID   = 66031
ELEMENT_SET_NO = 999
REV_AT_EPOCH   = 211
BSTAR          = -.10591E-1
MEAN_MOTION_DOT = -.1827609E-1
MEAN_MOTION_DDOT = 0

CCSDS_OMM_VERS = 2.0
CREATION_DATE  = 
ORIGINATOR     = 

OBJECT_NAME    = STARLINK-35311
OBJECT_ID      = 2025-232AD
CENTER_NAME    = EARTH
REF_FRAME      = TEME
TIME_SYSTEM    = UTC
MEAN_ELEMENT_THEORY = SGP/SGP4

EPOCH          = 2025-10-27T12:00:02.000160
MEAN_MOTION    = 15.80605423
ECCENTRICITY   = .0000588
INCLINATION    = 53.1547
RA_OF_ASC_NODE = 7.1678
ARG_OF_PERICENTER = 60.8068
MEAN_ANOMALY   = 136.7857

EPHEMERIS_TYPE = 0
CLASSIFICATION_TYPE = U
NORAD_CAT_ID   = 66032
ELEMENT_SET_NO = 999
REV_AT_EPOCH   = 211
BSTAR          = .26323E-2
MEAN_MOTION_DOT = .546414E-2
MEAN_MOTION_DDOT = 0

CCSDS_OMM_VERS = 2.0
CREATION_DATE  = 
ORIGINATOR     = 

OBJECT_NAME    = 2025-234A
OBJECT_ID      = 2025-234A
CENTER_NAME    = EARTH
REF_FRAME      = TEME
TIME_SYSTEM    = UTC
MEAN_ELEMENT_THEORY = SGP/SGP4

EPOCH          = 2025-10-27T11:27:34.437888
MEAN_MOTION    = 15.21831773
ECCENTRICITY   = .0014353
INCLINATION    = 97.4619
RA_OF_ASC_NODE = 6.0814
ARG_OF_PERICENTER = 257.5777
MEAN_ANOMALY   = 102.3853

EPHEMERIS_TYPE = 0
CLASSIFICATION_TYPE = U
NORAD_CAT_ID   = 66053
ELEMENT_SET_NO = 999
REV_AT_EPOCH   = 127
BSTAR          = .12601E-2
MEAN_MOTION_DOT = .28725E-3
MEAN_MOTION_DDOT = 0

CCSDS_OMM_VERS = 2.0
CREATION_DATE  = 
ORIGINATOR     = 

OBJECT_NAME    = 2025-234B
OBJECT_ID      = 2025-234B
CENTER_NAME    = EARTH
REF_FRAME      = TEME
TIME_SYSTEM    = UTC
MEAN_ELEMENT_THEORY = SGP/SGP4

EPOCH          = 2025-10-23T14:21:39.974976
MEAN_MOTION    = 15.21282678
ECCENTRICITY   = .0014619
INCLINATION    = 97.5057
RA_OF_ASC_NODE = 2.2525
ARG_OF_PERICENTER = 268.7380
MEAN_ANOMALY   = 91.2181

EPHEMERIS_TYPE = 0
CLASSIFICATION_TYPE = U
NORAD_CAT_ID   = 66054
ELEMENT_SET_NO = 999
REV_AT_EPOCH   = 68
BSTAR          = .40867E-3
MEAN_MOTION_DOT = .9095E-4
MEAN_MOTION_DDOT = 0

CCSDS_OMM_VERS = 2.0
CREATION_DATE  = 
ORIGINATOR     = 

OBJECT_NAME    = 2025-234C
OBJECT_ID      = 2025-234C
CENTER_NAME    = EARTH
REF_FRAME      = TEME
TIME_SYSTEM    = UTC
MEAN_ELEMENT_THEORY = SGP/SGP4

EPOCH          = 2025-10-25T18:27:59.611680
MEAN_MOTION    = 15.21202189
ECCENTRICITY   = .00142284
INCLINATION    = 97.4573
RA_OF_ASC_NODE = 4.3806
ARG_OF_PERICENTER = 259.3151
MEAN_ANOMALY   = 100.6483

EPHEMERIS_TYPE = 0
CLASSIFICATION_TYPE = U
NORAD_CAT_ID   = 66055
ELEMENT_SET_NO = 999
REV_AT_EPOCH   = 101
BSTAR          = .32205033E-3
MEAN_MOTION_DOT = .7133E-4
MEAN_MOTION_DDOT = 0

CCSDS_OMM_VERS = 2.0
CREATION_DATE  = 
ORIGINATOR     = 

OBJECT_NAME    = 2025-234D
OBJECT_ID      = 2025-234D
CENTER_NAME    = EARTH
REF_FRAME      = TEME
TIME_SYSTEM    = UTC
MEAN_ELEMENT_THEORY = SGP/SGP4

EPOCH          = 2025-10-25T08:59:43.425024
MEAN_MOTION    = 15.21279805
ECCENTRICITY   = .00142638
INCLINATION    = 97.4550
RA_OF_ASC_NODE = 3.9880
ARG_OF_PERICENTER = 258.7901
MEAN_ANOMALY   = 101.1731

EPHEMERIS_TYPE = 0
CLASSIFICATION_TYPE = U
NORAD_CAT_ID   = 66056
ELEMENT_SET_NO = 999
REV_AT_EPOCH   = 94
BSTAR          = .97766064E-3
MEAN_MOTION_DOT = .21892E-3
MEAN_MOTION_DDOT = 0

CCSDS_OMM_VERS = 2.0
CREATION_DATE  = 
ORIGINATOR     = 

OBJECT_NAME    = 2025-234E
OBJECT_ID      = 2025-234E
CENTER_NAME    = EARTH
REF_FRAME      = TEME
TIME_SYSTEM    = UTC
MEAN_ELEMENT_THEORY = SGP/SGP4

EPOCH          = 2025-10-22T03:39:05.023008
MEAN_MOTION    = 15.21126112
ECCENTRICITY   = .00221527
INCLINATION    = 97.5441
RA_OF_ASC_NODE = 0.7365
ARG_OF_PERICENTER = 241.6098
MEAN_ANOMALY   = 118.2904

EPHEMERIS_TYPE = 0
CLASSIFICATION_TYPE = U
NORAD_CAT_ID   = 66057
ELEMENT_SET_NO = 999
REV_AT_EPOCH   = 46
BSTAR          = .33848292E-3
MEAN_MOTION_DOT = .7512E-4
MEAN_MOTION_DDOT = 0

CCSDS_OMM_VERS = 2.0
CREATION_DATE  = 
ORIGINATOR     = 

OBJECT_NAME    = TJS-20
OBJECT_ID      = 2025-238A
CENTER_NAME    = EARTH
REF_FRAME      = TEME
TIME_SYSTEM    = UTC
MEAN_ELEMENT_THEORY = SGP/SGP4

EPOCH          = 2025-10-24T00:30:38.644704
MEAN_MOTION    = 1.72601617
ECCENTRICITY   = .77630572
INCLINATION    = 16.4249
RA_OF_ASC_NODE = 273.2021
ARG_OF_PERICENTER = 165.3209
MEAN_ANOMALY   = 248.2978

EPHEMERIS_TYPE = 0
CLASSIFICATION_TYPE = U
NORAD_CAT_ID   = 66142
ELEMENT_SET_NO = 999
REV_AT_EPOCH   = 2
BSTAR          = .89265633E-3
MEAN_MOTION_DOT = .7775E-4
MEAN_MOTION_DDOT = .152554E-5

CCSDS_OMM_VERS = 2.0
CREATION_DATE  = 
ORIGINATOR     = 

OBJECT_NAME    = CZ-5 R/B
OBJECT_ID      = 2025-238B
CENTER_NAME    = EARTH
REF_FRAME      = TEME
TIME_SYSTEM    = UTC
MEAN_ELEMENT_THEORY = SGP/SGP4

EPOCH          = 2025-10-27T01:58:42.218976
MEAN_MOTION    = 1.92853502
ECCENTRICITY   = .75963677
INCLINATION    = 16.4144
RA_OF_ASC_NODE = 272.2143
ARG_OF_PERICENTER = 166.1935
MEAN_ANOMALY   = 241.9927

EPHEMERIS_TYPE = 0
CLASSIFICATION_TYPE = U
NORAD_CAT_ID   = 66143
ELEMENT_SET_NO = 999
REV_AT_EPOCH   = 8
BSTAR          = .12113933E-2
MEAN_MOTION_DOT = .236E-3
MEAN_MOTION_DDOT = .525876E-6

CCSDS_OMM_VERS = 2.0
CREATION_DATE  = 
ORIGINATOR     = 

OBJECT_NAME    = SPAINSAT NG II
OBJECT_ID      = 2025-239A
CENTER_NAME    = EARTH
REF_FRAME      = TEME
TIME_SYSTEM    = UTC
MEAN_ELEMENT_THEORY = SGP/SGP4

EPOCH          = 2025-10-24T12:40:07.574880
MEAN_MOTION    = 1.16854831
ECCENTRICITY   = .82173774
INCLINATION    = 26.7778
RA_OF_ASC_NODE = 246.6577
ARG_OF_PERICENTER = 178.7247
MEAN_ANOMALY   = 187.6797

EPHEMERIS_TYPE = 0
CLASSIFICATION_TYPE = U
NORAD_CAT_ID   = 66144
ELEMENT_SET_NO = 999
REV_AT_EPOCH   = 2
BSTAR          = .55381208E-3
MEAN_MOTION_DOT = -.17E-5
MEAN_MOTION_DDOT = 0

CCSDS_OMM_VERS = 2.0
CREATION_DATE  = 
ORIGINATOR     = 

OBJECT_NAME    = HTV-X 1
OBJECT_ID      = 2025-241A
CENTER_NAME    = EARTH
REF_FRAME      = TEME
TIME_SYSTEM    = UTC
MEAN_ELEMENT_THEORY = SGP/SGP4

EPOCH          = 2025-10-27T11:51:43.149024
MEAN_MOTION    = 15.52723727
ECCENTRICITY   = .0004046
INCLINATION    = 51.6338
RA_OF_ASC_NODE = 11.4824
ARG_OF_PERICENTER = 344.0379
MEAN_ANOMALY   = 16.0483

EPHEMERIS_TYPE = 0
CLASSIFICATION_TYPE = U
NORAD_CAT_ID   = 66174
ELEMENT_SET_NO = 999
REV_AT_EPOCH   = 24
BSTAR          = .16773E-3
MEAN_MOTION_DOT = .10095E-3
MEAN_MOTION_DDOT = 0

