STARLINK-35431          
1 66030U 25232AB  25300.50002315 -.01801283  00000+0 -10416-1 0  9992
2 66030  53.1543   7.1774 0001144  66.3942 126.6627 15.80783997  2058
STARLINK-35326          
1 66031U 25232AC  25300.50002315 -.01827609  00000+0 -10591-1 0  9997
2 66031  53.1549   7.1738 0001293  74.2213 120.9728 15.80778894  2115
STARLINK-35311          
1 66032U 25232AD  25300.50002315  .00546414  00000+0  26323-2 0  9998
2 66032  53.1547   7.1678 0000588  60.8068 136.7857 15.80605423  2117
2025-234A               
1 66053U 25234A   25300.47748192  .00028725  00000+0  12601-2 0  9993
2 66053  97.4619   6.0814 0014353 257.5777 102.3853 15.21831773  1273
2025-234B               
1 66054U 25234B   25296.59837934  .00009095  00000+0  40867-3 0  9999
2 66054  97.5057   2.2525 0014619 268.7380  91.2181 15.21282678   685
2025-234C               
1 66055U 25234C   25298.76943995  .00007133  00000+0  32205-3 0  9994
2 66055  97.4573   4.3806 0014228 259.3151 100.6483 15.21202189  1018
2025-234D               
1 66056U 25234D   25298.37480816  .00021892  00000+0  97766-3 0  9991
2 66056  97.4550   3.9880 0014263 258.7901 101.1731 15.21279805   948
2025-234E               
1 66057U 25234E   25295.15214147  .00007512  00000+0  33848-3 0  9991
2 66057  97.5441   0.7365 0022152 241.6098 118.2904 15.21126112   466
TJS-20                  
1 66142U 25238A   25297.02128061  .00007775  15255-5  89266-3 0  9997
2 66142  16.4249 273.2021 7763057 165.3209 248.2978  1.72601617    28
CZ-5 R/B                
1 66143U 25238B   25300.08243309  .00023600  52588-6  12114-2 0  9995
2 66143  16.4144 272.2143 7596367 166.1935 241.9927  1.92853502    84
SPAINSAT NG II          
1 66144U 25239A   25297.52786545 -.00000170  00000+0  55381-3 0  9992
2 66144  26.7778 246.6577 8217377 178.7247 187.6797  1.16854831    22
HTV-X 1                 
1 66174U 25241A   25300.49424941  .00010095  00000+0  16773-3 0  9996
2 66174  51.6338  11.4824 0004046 344.0379  16.0483 15.52723727   245
